TRANSIT 16 [?]          
1 02807U 67048A   22208.76708411  .00000075  00000+0  10087-3 0  9990
2 02807  89.6523  35.0993 0022323  84.7737 286.0148 13.50317536716219
TRANSIT 17 [?]          
1 02965U 67092A   22208.80112201  .00000081  00000+0  10363-3 0  9999
2 02965  89.2411 120.3419 0046042 216.7485 202.9782 13.53029985704093
TRANSIT 18 [?]          
1 03133U 68012A   22208.93063596  .00000070  00000+0  91041-4 0  9997
2 03133  90.0057 271.6125 0076543 142.8336  29.7891 13.51156820402553
NNSS 19 [?]             
1 04507U 70067A   22208.78127970  .00000104  00000+0  13605-3 0  9993
2 04507  89.9202 239.0287 0170191 267.3211  90.8450 13.50831240555604
NNSS O-20 [?]           
1 06909U 73081A   22208.70467069  .00000113  00000+0  10499-3 0  9996
2 06909  89.8192 276.6967 0156832 175.6330 184.6244 13.70685223634522
TRANSAT [?]             
1 10457U 77106A   22209.02516883  .00000050  00000+0  64250-4 0  9991
2 10457  89.6839 121.2160 0025993 145.8553 225.5731 13.48681919201350
NOVA I [?]              
1 12458U 81044A   22208.76302344  .00000083  00000+0  17682-3 0  9997
2 12458  89.8891 107.2471 0012489 268.1390 150.6243 13.23066411988676
NOVA 3 [?]              
1 15362U 84110A   22208.86635199  .00000068  00000+0  14130-3 0  9997
2 15362  90.0960  67.3648 0033175 128.6934 242.8020 13.22835367823853
OSCAR 30 [?]            
1 15935U 85066A   22208.91334301  .00000065  00000+0  10410-3 0  9995
2 15935  90.1760  78.6249 0167952 324.9386  44.1682 13.35758955799808
OSCAR 24 [?]            
1 15936U 85066B   22208.91813630  .00000045  00000+0  68009-4 0  9999
2 15936  90.1706  70.5877 0168608 330.6483  39.4283 13.35619208801724
POLAR BEAR [?]          
1 17070U 86088A   22208.83797672  .00000073  00000+0  64857-4 0  9991
2 17070  89.5614 235.7533 0037176 240.1535 293.8106 13.74872690790228
OSCAR 27 [?]            
1 18361U 87080A   22209.07376805  .00000065  00000+0  92545-4 0  9992
2 18361  90.3282  35.5819 0105140 156.2027 204.4034 13.44567273710029
OSCAR 29 [?]            
1 18362U 87080B   22208.82476598  .00000085  00000+0  12809-3 0  9991
2 18362  90.3294  35.9051 0106122 177.2185 193.7203 13.44153121709326
OSCAR 23 [?]            
1 19070U 88033A   22208.80898550  .00000020  00000+0  24565-4 0  9993
2 19070  90.3343 338.0488 0190118  12.0824  98.9407 13.27524077658804
OSCAR 32 [?]            
1 19071U 88033B   22208.87332896  .00000004  00000+0 -62414-5 0  9996
2 19071  90.3345 338.1371 0187976 359.8269 118.1379 13.27703641658913
NOVA 11 [?]             
1 19223U 88052A   22208.92928112  .00000053  00000+0  10508-3 0  9992
2 19223  89.9734  80.7808 0030628 170.5611 200.2641 13.22747003646369
OSCAR 25 [?]            
1 19419U 88074A   22208.92049674  .00000052  00000+0  72820-4 0  9995
2 19419  90.0034  17.9043 0096935 164.4789   0.5227 13.42298220660862
OSCAR 31 [?]            
1 19420U 88074B   22208.93214642  .00000085  00000+0  12949-3 0  9998
2 19420  90.0044  18.0844 0095297 158.6207 355.8214 13.42307419660971
